stk.v.10.0
# WrittenBy    GMAT R2020a
BEGIN Ephemeris
NumberOfEphemerisPoints 123
ScenarioEpoch           01 Jan 2000 11:59:28.000
CentralBody             Earth
CoordinateSystem        J2000
DistanceUnit            Kilometers

EphemerisTimePosVel

0.000000000000000e+00   7.100000000000000e+03   0.000000000000000e+00   1.300000000000000e+03   0.000000000000000e+00   7.350000000000000e+00   1.000000000000000e+00
5.999999988125637e+01   7.086464536250396e+03   4.407200320631434e+02   1.357477178439192e+03  -4.507028005913482e-01   7.336012339785204e+00   9.153591112484406e-01
1.546969776274636e+02   7.010392399575419e+03   1.132245267283829e+03   1.437596671619523e+03  -1.153870386875244e+00   7.257598995053327e+00   7.755903286921487e-01
2.546351394150406e+02   6.858669089559641e+03   1.850382846311415e+03   1.507446607318716e+03  -1.878990079407504e+00   7.101714217709991e+00   6.212326352402409e-01
3.555051917675883e+02   6.633231669078229e+03   2.555696848673637e+03   1.562015451964169e+03  -2.586149418108253e+00   6.870834536909197e+00   4.599544138369718e-01
4.567957341321744e+02   6.336631488848975e+03   3.236893895918207e+03   1.600233840976598e+03  -3.264404776231372e+00   6.567972272262479e+00   2.941793478070672e-01
5.584304238203913e+02   5.971876323928005e+03   3.886105527584491e+03   1.621582654673866e+03  -3.906413854577811e+00   6.196497687263768e+00   1.257187324757395e-01
6.603781486744992e+02   5.542678767541841e+03   4.496113546784292e+03   1.625761126752374e+03  -4.505583536402608e+00   5.760380245452764e+00  -4.367213823652617e-02
7.626121193985455e+02   5.053474539085230e+03   5.060136116293321e+03   1.612661108661382e+03  -5.055822748229909e+00   5.264197793718603e+00  -2.122474173143446e-01
8.651034658891149e+02   4.509394712198357e+03   5.571864080562965e+03   1.582366910355191e+03  -5.551547233140202e+00   4.713104468903383e+00  -3.782760164485846e-01
9.678177297231741e+02   3.916234287631509e+03   6.025522495898462e+03   1.535157891758095e+03  -5.987709681836985e+00   4.112801073553313e+00  -5.400512353620112e-01
1.070719472737983e+03   3.280369286690280e+03   6.415968759461467e+03   1.471506571445095e+03  -6.359865967029063e+00   3.469459618316395e+00  -6.959132555617809e-01
1.173769961425569e+03   2.608700727569628e+03   6.738748746496894e+03   1.392075950709474e+03  -6.664202477972220e+00   2.789681115397518e+00  -8.442599629439195e-01
1.276931112923194e+03   1.908552713054636e+03   6.990168383402885e+03   1.297710502650336e+03  -6.897581161927855e+00   2.080412308210143e+00  -9.835666056040852e-01
1.380160706327297e+03   1.187620567449022e+03   7.167328944740190e+03   1.189431409089596e+03  -7.057554266209911e+00   1.348917624623645e+00  -1.112392374311019e+00
1.483417168864980e+03   4.538501162210596e+02   7.268180460926519e+03   1.068421609251766e+03  -7.142400830091223e+00   6.026849406798269e-01  -1.229399977108371e+00
1.586659110069741e+03  -2.846533053386195e+02   7.291545624001610e+03   9.360122876245877e+02  -7.151140697935445e+00  -1.506363412625670e-01  -1.333366687693674e+00
1.689842966885772e+03  -1.019704083454993e+03   7.237137548034601e+03   7.936706780660378e+02  -7.083549050943927e+00  -9.032841473947254e-01  -1.423193712930475e+00
1.792928674339782e+03  -1.743174392866046e+03   7.105564744356042e+03   6.429753214503945e+02  -6.940163685264608e+00  -1.647493158919581e+00  -1.497922454895808e+00
1.895876328705344e+03  -2.447067239493605e+03   6.898321886881786e+03   4.856013243210337e+02  -6.722285822046234e+00  -2.375539844005353e+00  -1.556740831279103e+00
1.998647118837107e+03  -3.123618436917324e+03   6.617771917619264e+03   3.232991235082870e+02  -6.431977624893221e+00  -3.079820178786988e+00  -1.598993429137648e+00
2.101203479873948e+03  -3.765390325503950e+03   6.267116866009676e+03   1.578732289793168e+02  -6.072053836949314e+00  -3.752923401972756e+00  -1.624190034156320e+00
2.203513148613274e+03  -4.365383678432999e+03   5.850340932668311e+03  -8.846140952891558e+00  -5.646049671178070e+00  -4.387730789269539e+00  -1.632013183174966e+00
2.305543803074397e+03  -4.917084561869631e+03   5.372176367653669e+03  -1.750163902301519e+02  -5.158215458281077e+00  -4.977452723214309e+00  -1.622322252787584e+00
2.407268133445177e+03  -5.414567820665215e+03   4.838022801518397e+03  -3.388125903846373e+02  -4.613465590372460e+00  -5.515732426123233e+00  -1.595158184224783e+00
2.508661767560989e+03  -5.852548534426366e+03   4.253885124634185e+03  -4.984454545691977e+02  -4.017347037305284e+00  -5.996702328852932e+00  -1.550745367159332e+00
2.609702737815678e+03  -6.226436809843569e+03   3.626301953106397e+03  -6.521811999391991e+02  -3.375997336249537e+00  -6.415050991676057e+00  -1.489493009170299e+00
2.710376563109457e+03  -6.532401051016288e+03   2.962231667181268e+03  -7.983687143172240e+02  -2.696056903657812e+00  -6.766107518190202e+00  -1.411990459612262e+00
2.810668755741790e+03  -6.767375486785004e+03   2.269013287960765e+03  -9.354463359049769e+02  -1.984654228667286e+00  -7.045870421822297e+00  -1.319008393520335e+00
2.910571090551093e+03  -6.929106411316225e+03   1.554238209052532e+03  -1.061967818838024e+03  -1.249295184333188e+00  -7.251086087034097e+00  -1.211489065457937e+00
3.010078642750159e+03  -7.016156710384531e+03   8.256794900418797e+02  -1.176612827162699e+03  -4.978055531784299e-01  -7.379285081228399e+00  -1.090540621258295e+00
3.109191655623727e+03  -7.027911962949458e+03   9.118868216586149e+01  -1.278202106672780e+03   2.617661149966322e-01  -7.428824435574275e+00  -9.574249031117616e-01
3.207915579818655e+03  -6.964570065703325e+03  -6.413931421576904e+02  -1.365707693377122e+03   1.021237861659909e+00  -7.398913339334498e+00  -8.135444217955607e-01
3.306256227765698e+03  -6.827129886409361e+03  -1.364285075610233e+03  -1.438257616343176e+03   1.772349671915177e+00  -7.289635822404293e+00  -6.604351677021818e-01
3.404225896659773e+03  -6.617365167709406e+03  -2.069894535607674e+03  -1.495148498033644e+03   2.506906829468038e+00  -7.101960452885741e+00  -4.997414460330516e-01
3.501841155008879e+03  -6.337789741682037e+03  -2.750878548168992e+03  -1.535847491188898e+03   3.216860252192876e+00  -6.837734613670174e+00  -3.332002119256708e-01
3.599121814488899e+03  -5.991620473722412e+03  -3.400208929817445e+03  -1.559994314171062e+03   3.894396140535079e+00  -6.499672539266454e+00  -1.626228370008912e-01
3.696090215491131e+03  -5.582736311329162e+03  -4.011235430044078e+03  -1.567402281992191e+03   4.532027905046697e+00  -6.091334073456847e+00   1.012480814115279e-02
3.792771813331638e+03  -5.115627172711859e+03  -4.577752084143445e+03  -1.558057889781284e+03   5.122694729857731e+00  -5.617086813679740e+00   1.831457493232392e-01
3.889195796521381e+03  -4.595335085945871e+03  -5.094055755929263e+03  -1.532117900771255e+03   5.659853896767887e+00  -5.082052992629155e+00   3.545362248705570e-01
3.985392802907154e+03  -4.027407107772881e+03  -5.554982226752371e+03  -1.489905554003730e+03   6.137550180608817e+00  -4.492061142105571e+00   5.224051310372205e-01
4.081395952531602e+03  -3.417829550520405e+03  -5.955955822804143e+03  -1.431905152094181e+03   6.550498408638424e+00  -3.853571553356997e+00   6.848994388049202e-01
4.177241136808880e+03  -2.772961463797972e+03  -6.293025830052244e+03  -1.358754713806180e+03   6.894149795256750e+00  -3.173593789097643e+00   8.402276938111205e-01
4.272963910200633e+03  -2.099490232158754e+03  -6.562885773654119e+03  -1.271240371957805e+03   7.164737078642889e+00  -2.459621424740148e+00   9.866772745628267e-01
4.368601986241993e+03  -1.404349173735283e+03  -6.762908507028185e+03  -1.170285904239105e+03   7.359331041936794e+00  -1.719521549741854e+00   1.122639863970637e+00
4.464195957966149e+03  -6.946436863089300e+02  -6.891161738298875e+03  -1.056941183307151e+03   7.475870825592035e+00  -9.614287156175143e-01   1.246631480048008e+00
4.559783759561833e+03   2.237498594543214e+01  -6.946411737461886e+03  -9.323777905646289e+02   7.513176904597414e+00  -1.936869763297702e-01   1.357302799795612e+00
4.655404336703941e+03   7.394036224631567e+02  -6.928140425997187e+03  -7.978739778625545e+02   7.470970056709762e+00   5.752817394177916e-01   1.453460540627137e+00
4.751096993079409e+03   1.449149734837929e+03  -6.836544811307822e+03  -6.548029735324496e+02   7.349865735215489e+00   1.337076391041142e+00   1.534079850897090e+00
4.846898619958665e+03   2.144378026760121e+03  -6.672537247989445e+03  -5.046243864185239e+02   7.151363539219144e+00   2.083396936679176e+00   1.598313264039555e+00
4.942847906844690e+03   2.818007593380898e+03  -6.437731890859402e+03  -3.488643956730415e+02   6.877814330613640e+00   2.806176486014721e+00   1.645502549086572e+00
5.038978475437034e+03   3.463128599824759e+03  -6.134445294128142e+03  -1.891126742146664e+02   6.532399880205189e+00   3.497623452923122e+00   1.675180695863284e+00
5.135326566046569e+03   4.073120331168378e+03  -5.765658629869535e+03  -2.699545768579297e+01   6.119063753855712e+00   4.150367845407973e+00   1.687078958933524e+00
5.231924534600694e+03   4.641668823246121e+03  -5.335010788267785e+03   1.358287263585208e+02   5.642475266591214e+00   4.757494377560553e+00   1.681124693710340e+00
5.328799357102253e+03   5.162824501243937e+03  -4.846783350713929e+03   2.976817979134717e+02   5.107981081829450e+00   5.312612619275541e+00   1.657441902710013e+00
5.425980451516807e+03   5.631106050274660e+03  -4.305828295894692e+03   4.568951059878039e+02   4.521493704998751e+00   5.809969858348536e+00   1.616345883758629e+00
5.523490597656928e+03   6.041507700152527e+03  -3.717571807404597e+03   6.118103525631844e+02   3.889464387955772e+00   6.244454414542191e+00   1.558338644922614e+00
5.621349687350448e+03   6.389577209254659e+03  -3.087952027967320e+03   7.608024481169795e+02   3.218785361292308e+00   6.611667969504135e+00   1.484100581014705e+00
END Ephemeris

